[
    {
        "Altitude(m)": 707309.4869054488,
        "Argument of Periapsis(deg)": 0.007973084830638947,
        "Eccentricity": 0.0,
        "Inclination(deg)": 45.0,
        "Latitude(deg)": 45.15429985165925,
        "Longitude(deg)": 44.325205733373124,
        "Mean Anomaly(deg)": 89.89145165323657,
        "RAAN(deg)": 54.992473640979256,
        "Satellite Name": "Constellation 1 247",
        "Satellite Number": 247,
        "Semi-Major Axis(m)": 7083131.272910544,
        "Time(s)": 133
    },
    {
        "Altitude(m)": 707309.5113358796,
        "Argument of Periapsis(deg)": 0.008033032836884352,
        "Eccentricity": 0.0,
        "Inclination(deg)": 45.0,
        "Latitude(deg)": 45.154374444584526,
        "Longitude(deg)": 44.406990855776556,
        "Mean Anomaly(deg)": 89.95215279348648,
        "RAAN(deg)": 54.99241705181369,
        "Satellite Name": "Constellation 1 247",
        "Satellite Number": 247,
        "Semi-Major Axis(m)": 7083131.272910544,
        "Time(s)": 134
    },
    {
        "Altitude(m)": 707309.5211271314,
        "Argument of Periapsis(deg)": 0.008092980843129758,
        "Eccentricity": 0.0,
        "Inclination(deg)": 45.0,
        "Latitude(deg)": 45.15438446669235,
        "Longitude(deg)": 44.48877610501934,
        "Mean Anomaly(deg)": 90.01285393373638,
        "RAAN(deg)": 54.992360462648115,
        "Satellite Name": "Constellation 1 247",
        "Satellite Number": 247,
        "Semi-Major Axis(m)": 7083131.272910544,
        "Time(s)": 135
    },
    {
        "Altitude(m)": 707309.5162791742,
        "Argument of Periapsis(deg)": 0.008152928849375162,
        "Eccentricity": 0.0,
        "Inclination(deg)": 45.0,
        "Latitude(deg)": 45.154329917938334,
        "Longitude(deg)": 44.57056128723906,
        "Mean Anomaly(deg)": 90.0735550739863,
        "RAAN(deg)": 54.99230387348255,
        "Satellite Name": "Constellation 1 247",
        "Satellite Number": 247,
        "Semi-Major Axis(m)": 7083131.272910544,
        "Time(s)": 136
    },
    {
        "Altitude(m)": 707309.4967920803,
        "Argument of Periapsis(deg)": 0.008212876855620568,
        "Eccentricity": 0.0,
        "Inclination(deg)": 45.0,
        "Latitude(deg)": 45.154210798566716,
        "Longitude(deg)": 44.65234620857439,
        "Mean Anomaly(deg)": 90.13425621423619,
        "RAAN(deg)": 54.992247284316974,
        "Satellite Name": "Constellation 1 247",
        "Satellite Number": 247,
        "Semi-Major Axis(m)": 7083131.272910544,
        "Time(s)": 137
    },
    {
        "Altitude(m)": 707309.4626659973,
        "Argument of Periapsis(deg)": 0.008272824861865974,
        "Eccentricity": 0.0,
        "Inclination(deg)": 45.0,
        "Latitude(deg)": 45.15402710911047,
        "Longitude(deg)": 44.73413067516869,
        "Mean Anomaly(deg)": 90.19495735448608,
        "RAAN(deg)": 54.992190695151415,
        "Satellite Name": "Constellation 1 247",
        "Satellite Number": 247,
        "Semi-Major Axis(m)": 7083131.272910544,
        "Time(s)": 138
    },
    {
        "Altitude(m)": 707309.4139011604,
        "Argument of Periapsis(deg)": 0.00833277286811138,
        "Eccentricity": 0.0,
        "Inclination(deg)": 45.0,
        "Latitude(deg)": 45.153778850391085,
        "Longitude(deg)": 44.81591449317372,
        "Mean Anomaly(deg)": 90.255658494736,
        "RAAN(deg)": 54.99213410598584,
        "Satellite Name": "Constellation 1 247",
        "Satellite Number": 247,
        "Semi-Major Axis(m)": 7083131.272910544,
        "Time(s)": 139
    },
    {
        "Altitude(m)": 707309.3504978872,
        "Argument of Periapsis(deg)": 0.008392720874356788,
        "Eccentricity": 0.0,
        "Inclination(deg)": 45.0,
        "Latitude(deg)": 45.1534660235188,
        "Longitude(deg)": 44.89769746875275,
        "Mean Anomaly(deg)": 90.3163596349859,
        "RAAN(deg)": 54.992077516820274,
        "Satellite Name": "Constellation 1 247",
        "Satellite Number": 247,
        "Semi-Major Axis(m)": 7083131.272910544,
        "Time(s)": 140
    },
    {
        "Altitude(m)": 707309.2724565864,
        "Argument of Periapsis(deg)": 0.008452668880602192,
        "Eccentricity": 0.0,
        "Inclination(deg)": 45.0,
        "Latitude(deg)": 45.153088629892146,
        "Longitude(deg)": 44.97947923998701,
        "Mean Anomaly(deg)": 90.37706077523578,
        "RAAN(deg)": 54.9920209276547,
        "Satellite Name": "Constellation 1 247",
        "Satellite Number": 247,
        "Semi-Major Axis(m)": 7083131.272910544,
        "Time(s)": 141
    },
    {
        "Altitude(m)": 707309.1797777488,
        "Argument of Periapsis(deg)": 0.008512616886847598,
        "Eccentricity": 0.0,
        "Inclination(deg)": 45.0,
        "Latitude(deg)": 45.15264667119891,
        "Longitude(deg)": 45.06125994926822,
        "Mean Anomaly(deg)": 90.43776191548567,
        "RAAN(deg)": 54.99196433848914,
        "Satellite Name": "Constellation 1 247",
        "Satellite Number": 247,
        "Semi-Major Axis(m)": 7083131.272910544,
        "Time(s)": 142
    },
    {
        "Altitude(m)": 707309.0724619516,
        "Argument of Periapsis(deg)": 0.008572564893093004,
        "Eccentricity": 0.0,
        "Inclination(deg)": 45.0,
        "Latitude(deg)": 45.15214014941475,
        "Longitude(deg)": 45.14303923471839,
        "Mean Anomaly(deg)": 90.49846305573556,
        "RAAN(deg)": 54.991907749323566,
        "Satellite Name": "Constellation 1 247",
        "Satellite Number": 247,
        "Semi-Major Axis(m)": 7083131.272910544,
        "Time(s)": 143
    },
    {
        "Altitude(m)": 707308.9505098565,
        "Argument of Periapsis(deg)": 0.008632512899338408,
        "Eccentricity": 0.0,
        "Inclination(deg)": 45.0,
        "Latitude(deg)": 45.15156906680398,
        "Longitude(deg)": 45.22481690258272,
        "Mean Anomaly(deg)": 90.55916419598547,
        "RAAN(deg)": 54.99185116015799,
        "Satellite Name": "Constellation 1 247",
        "Satellite Number": 247,
        "Semi-Major Axis(m)": 7083131.272910544,
        "Time(s)": 144
    },
    {
        "Altitude(m)": 707308.8139222146,
        "Argument of Periapsis(deg)": 0.008692460905583814,
        "Eccentricity": 0.0,
        "Inclination(deg)": 45.0,
        "Latitude(deg)": 45.150933425919455,
        "Longitude(deg)": 45.30659275913522,
        "Mean Anomaly(deg)": 90.61986533623539,
        "RAAN(deg)": 54.99179457099242,
        "Satellite Name": "Constellation 1 247",
        "Satellite Number": 247,
        "Semi-Major Axis(m)": 7083131.272910544,
        "Time(s)": 145
    },
    {
        "Altitude(m)": 707308.6626998587,
        "Argument of Periapsis(deg)": 0.00875240891182922,
        "Eccentricity": 0.0,
        "Inclination(deg)": 45.0,
        "Latitude(deg)": 45.15023322960229,
        "Longitude(deg)": 45.388366610682716,
        "Mean Anomaly(deg)": 90.68056647648525,
        "RAAN(deg)": 54.99173798182685,
        "Satellite Name": "Constellation 1 247",
        "Satellite Number": 247,
        "Semi-Major Axis(m)": 7083131.272910544,
        "Time(s)": 146
    },
    {
        "Altitude(m)": 707308.4968437045,
        "Argument of Periapsis(deg)": 0.008812356918074627,
        "Eccentricity": 0.0,
        "Inclination(deg)": 45.0,
        "Latitude(deg)": 45.149468480982044,
        "Longitude(deg)": 45.47013826356823,
        "Mean Anomaly(deg)": 90.74126761673521,
        "RAAN(deg)": 54.99168139266128,
        "Satellite Name": "Constellation 1 247",
        "Satellite Number": 247,
        "Semi-Major Axis(m)": 7083131.272910544,
        "Time(s)": 147
    },
    {
        "Altitude(m)": 707308.3163547624,
        "Argument of Periapsis(deg)": 0.008872304924320031,
        "Eccentricity": 0.0,
        "Inclination(deg)": 45.0,
        "Latitude(deg)": 45.148639183476206,
        "Longitude(deg)": 45.55190735607692,
        "Mean Anomaly(deg)": 90.80196875698506,
        "RAAN(deg)": 54.99162480349572,
        "Satellite Name": "Constellation 1 247",
        "Satellite Number": 247,
        "Semi-Major Axis(m)": 7083131.272910544,
        "Time(s)": 148
    },
    {
        "Altitude(m)": 707308.1212341163,
        "Argument of Periapsis(deg)": 0.008932252930565437,
        "Eccentricity": 0.0,
        "Inclination(deg)": 45.0,
        "Latitude(deg)": 45.1477453407912,
        "Longitude(deg)": 45.63367403082913,
        "Mean Anomaly(deg)": 90.862669897235,
        "RAAN(deg)": 54.991568214330144,
        "Satellite Name": "Constellation 1 247",
        "Satellite Number": 247,
        "Semi-Major Axis(m)": 7083131.272910544,
        "Time(s)": 149
    },
    {
        "Altitude(m)": 707307.9114829502,
        "Argument of Periapsis(deg)": 0.008992200936810843,
        "Eccentricity": 0.0,
        "Inclination(deg)": 45.0,
        "Latitude(deg)": 45.146786956920835,
        "Longitude(deg)": 45.715437926199705,
        "Mean Anomaly(deg)": 90.92337103748487,
        "RAAN(deg)": 54.99151162516458,
        "Satellite Name": "Constellation 1 247",
        "Satellite Number": 247,
        "Semi-Major Axis(m)": 7083131.272910544,
        "Time(s)": 150
    },
    {
        "Altitude(m)": 707307.6871025156,
        "Argument of Periapsis(deg)": 0.009052148943056249,
        "Eccentricity": 0.0,
        "Inclination(deg)": 45.0,
        "Latitude(deg)": 45.145764036147185,
        "Longitude(deg)": 45.79719884871095,
        "Mean Anomaly(deg)": 90.98407217773475,
        "RAAN(deg)": 54.991455035999,
        "Satellite Name": "Constellation 1 247",
        "Satellite Number": 247,
        "Semi-Major Axis(m)": 7083131.272910544,
        "Time(s)": 151
    }
]